[{"OBJECT_NAME":"STARLINK-30508","OBJECT_ID":"2023-151R","EPOCH":"2026-03-09T22:00:01.999584","MEAN_MOTION":15.26754835,"ECCENTRICITY":0.00018952,"INCLINATION":42.9999,"RA_OF_ASC_NODE":349.4045,"ARG_OF_PERICENTER":269.8199,"MEAN_ANOMALY":246.9133,"EPHEMERIS_TYPE":0,"CLASSIFICATION_TYPE":"U","NORAD_CAT_ID":57979,"ELEMENT_SET_NO":999,"REV_AT_EPOCH":577,"BSTAR":-0.00031514839,"MEAN_MOTION_DOT":-8.707e-5,"MEAN_MOTION_DDOT":0},{"OBJECT_NAME":"OTTER","OBJECT_ID":"2025-009Q","EPOCH":"2026-03-09T17:21:07.902432","MEAN_MOTION":15.27809545,"ECCENTRICITY":0.00035728,"INCLINATION":97.4065,"RA_OF_ASC_NODE":151.3812,"ARG_OF_PERICENTER":310.771,"MEAN_ANOMALY":49.3219,"EPHEMERIS_TYPE":0,"CLASSIFICATION_TYPE":"U","NORAD_CAT_ID":62623,"ELEMENT_SET_NO":999,"REV_AT_EPOCH":6372,"BSTAR":0.00045151206,"MEAN_MOTION_DOT":0.00012198,"MEAN_MOTION_DDOT":0}]
